{
  "norad_id": 59856,
  "name": "STARLINK-31691",
  "history": [
    {
      "epoch": "2026-03-28T22:15:06.106464Z",
      "apogee_km": 483.42774269628717,
      "perigee_km": 482.7402483525357,
      "latitude_deg": -1.1105742568830133e-05,
      "longitude_deg": 5.186663927537496,
      "height_km": 483.07712807287226,
      "semi_major_axis_km": 6861.220995524412,
      "eccentricity": 5.01e-05,
      "inclination_deg": 43.0012,
      "raan_deg": 165.3027,
      "arg_perigee_deg": 230.8054,
      "mean_anomaly_deg": 129.2753,
      "mean_motion_rev_day": 15.27568345
    }
  ]
}